COMMENT,ORIGINATOR,NORAD_CAT_ID,OBJECT_NAME,OBJECT_TYPE,CLASSIFICATION_TYPE,INTLDES,EPOCH,EPOCH_MICROSECONDS,MEAN_MOTION,ECCENTRICITY,INCLINATION,RA_OF_ASC_NODE,ARG_OF_PERICENTER,MEAN_ANOMALY,EPHEMERIS_TYPE,ELEMENT_SET_NO,REV_AT_EPOCH,BSTAR,MEAN_MOTION_DOT,MEAN_MOTION_DDOT,FILE,TLE_LINE0,TLE_LINE1,TLE_LINE2,OBJECT_ID,OBJECT_NUMBER,SEMIMAJOR_AXIS,PERIOD,APOGEE,PERIGEE
"GENERATED VIA SPACETRACK.ORG API","JSPOC","11474","MOLNIYA 1-44","PAYLOAD","U","79070A","2016-01-10 04:26:42","137952","11.18305144","0.2213647","62.098","60.8284","285.6059","51.2707","0","999","50238","0.00065737","0.00119563","2.1864e-06","1978475","0 MOLNIYA 1-44","1 11474U 79070A   16010.18520993  .00119563  21864-5  65737-3 0  9997","2 11474  62.0980  60.8284 2213647 285.6059  51.2707 11.18305144502380","1979-070A","11474","8446.853","128.766","3938.553","198.883"
"GENERATED VIA SPACETRACK.ORG API","JSPOC","40384","INMARSAT 5-F2","PAYLOAD","U","15005A","2016-01-10 04:26:46","560768","1.00271337","9.15e-05","0.0175","45.1764","0.3665","75.3021","0","999","346","0","-2.81e-06","0","1978400","0 INMARSAT 5-F2","1 40384U 15005A   16010.18526112 -.00000281  00000-0  00000+0 0  9995","2 40384   0.0175  45.1764 0000915   0.3665  75.3021  1.00271337  3461","2015-005A","40384","42164.857","1436.103","35790.580","35782.864"
"GENERATED VIA SPACETRACK.ORG API","JSPOC","40384","INMARSAT 5-F2","PAYLOAD","U","15005A","2016-01-10 04:26:46","560768","1.00271337","9.15e-05","0.0175","45.1764","0.3665","75.3021","0","999","346","0","-2.81e-06","0","1978613","0 INMARSAT 5-F2","1 40384U 15005A   16010.18526112 -.00000281  00000-0  00000+0 0  9995","2 40384   0.0175  45.1764 0000915   0.3665  75.3021  1.00271337  3461","2015-005A","40384","42164.857","1436.103","35790.580","35782.864"
"GENERATED VIA SPACETRACK.ORG API","JSPOC","40384","INMARSAT 5-F2","PAYLOAD","U","15005A","2016-01-10 04:26:46","560768","1.00271337","9.15e-05","0.0175","45.1764","0.3665","75.3021","0","999","346","0","-2.81e-06","0","1979021","0 INMARSAT 5-F2","1 40384U 15005A   16010.18526112 -.00000281  00000-0  00000+0 0  9995","2 40384   0.0175  45.1764 0000915   0.3665  75.3021  1.00271337  3461","2015-005A","40384","42164.857","1436.103","35790.580","35782.864"
"GENERATED VIA SPACETRACK.ORG API","JSPOC","26477","RADUGA 1-5","PAYLOAD","U","00049A","2016-01-10 04:26:55","312224","1.00296229","0.0001939","11.1542","38.8224","202.9182","339.8938","0","999","5627","0","1.16e-06","0","1978360","0 RADUGA 1-5","1 26477U 00049A   16010.18536241  .00000116  00000-0  00000+0 0  9994","2 26477  11.1542  38.8224 0001939 202.9182 339.8938  1.00296229 56279","2000-049A","26477","42157.880","1435.746","35787.920","35771.571"
"GENERATED VIA SPACETRACK.ORG API","JSPOC","26590","INTELSAT 12 (PAS 12)","PAYLOAD","U","00068A","2016-01-10 04:26:55","312224","1.00271141","0.0003009","0.0422","275.4693","16.3721","289.0002","0","999","5558","0","1.41e-06","0","1978367","0 INTELSAT 12 (PAS 12)","1 26590U 00068A   16010.18536241  .00000141  00000-0  00000+0 0  9999","2 26590   0.0422 275.4693 0003009  16.3721 289.0002  1.00271141 55581","2000-068A","26590","42164.912","1436.106","35799.464","35774.090"
"GENERATED VIA SPACETRACK.ORG API","JSPOC","37192","GLOBALSTAR M075","PAYLOAD","U","10054E","2016-01-10 04:26:58","159968","12.6226154","0.00011","51.9929","233.9767","55.3248","100.5402","0","999","24118","0.00016372","-7.4e-07","0","1978456","0 GLOBALSTAR M075","1 37192U 10054E   16010.18539537 -.00000074  00000-0  16372-3 0  9995","2 37192  51.9929 233.9767 0001100  55.3248 100.5402 12.62261540241182","2010-054E","37192","7791.760","114.080","1414.482","1412.768"
"GENERATED VIA SPACETRACK.ORG API","JSPOC","26631","EROS A1","PAYLOAD","U","00079A","2016-01-10 04:27:09","557856","15.57702554","0.0003377","97.5446","114.2994","336.9461","84.2406","0","999","83854","0.00079047","0.00058794","0","1978434","0 EROS A1","1 26631U 00079A   16010.18552729  .00058794  00000-0  79047-3 0  9994","2 26631  97.5446 114.2994 0003377 336.9461  84.2406 15.57702554838540","2000-079A","26631","6772.444","92.443","396.597","392.022"
"GENERATED VIA SPACETRACK.ORG API","JSPOC","40883","BREEZE-M R/B","ROCKET BODY","U","15042B","2016-01-10 04:27:22","839264","1.10221977","0.7681909","27.9439","149.3705","202.3284","85.8263","0","999","148","0","-1.38e-06","0","1979034","0 BREEZE-M R/B","1 40883U 15042B   16010.18568101 -.00000138 +00000-0 +00000-0 0  9996","2 40883 027.9439 149.3705 7681909 202.3284 085.8263 01.10221977001484","2015-042B","40883","39587.345","1306.454","63619.848","2798.571"
"GENERATED VIA SPACETRACK.ORG API","JSPOC","23608","ARIANE 40+3 R/B","ROCKET BODY","U","95033D","2016-01-10 04:27:38","486304","14.95316373","0.0017113","98.2284","270.8255","178.3888","181.7389","0","999","10942","0.00012263","1.291e-05","0","1978420","0 ARIANE 40+3 R/B","1 23608U 95033D   16010.18586211  .00001291  00000-0  12263-3 0  9999","2 23608  98.2284 270.8255 0017113 178.3888 181.7389 14.95316373109424","1995-033D","23608","6959.527","96.300","593.302","569.483"
"GENERATED VIA SPACETRACK.ORG API","JSPOC","29228","RESURS DK-1","PAYLOAD","U","06021A","2016-01-10 04:27:42","139296","15.01727069","0.0001951","69.9378","350.8878","29.6322","330.4935","0","999","52942","3.8468e-05","4.05e-06","0","1978382","0 RESURS DK-1","1 29228U 06021A   16010.18590439  .00000405  00000-0  38468-4 0  9991","2 29228  69.9378 350.8878 0001951  29.6322 330.4935 15.01727069529423","2006-021A","29228","6939.707","95.889","562.926","560.218"
"GENERATED VIA SPACETRACK.ORG API","JSPOC","28164","SL-6 R/B(2)","ROCKET BODY","U","04005B","2016-01-10 04:27:49","342464","1.97288719","0.7535077","63.8482","13.949","243.0292","24.6124","0","999","8554","0.00070214","3.594e-05","0","1979034","0 SL-6 R/B(2)","1 28164U 04005B   16010.18598776 +.00003594 +00000-0 +70214-3 0  9997","2 28164 063.8482 013.9490 7535077 243.0292 024.6124 01.97288719085549","2004-005B","28164","26853.465","729.894","40709.623","241.037"
"GENERATED VIA SPACETRACK.ORG API","JSPOC","33499","KKS-1 (KISEKI)","PAYLOAD","U","09002H","2016-01-10 04:27:58","290048","14.748268","0.000822","98.2633","156.3676","239.6519","120.3877","0","999","37411","7.3578e-05","4.39e-06","0","1978426","0 KKS-1 (KISEKI)","1 33499U 09002H   16010.18609132  .00000439  00000-0  73578-4 0  9997","2 33499  98.2633 156.3676 0008220 239.6519 120.3877 14.74826800374116","2009-002H","33499","7023.838","97.638","651.476","639.929"
"GENERATED VIA SPACETRACK.ORG API","JSPOC","38045","GLOBALSTAR M086","PAYLOAD","U","11080F","2016-01-10 04:28:01","763328","12.62263514","4.42e-05","51.9905","53.5604","153.5823","230.6057","0","999","18847","6.8348e-05","-9.2e-07","0","1978389","0 GLOBALSTAR M086","1 38045U 11080F   16010.18613152 -.00000092  00000-0  68348-4 0  9990","2 38045  51.9905  53.5604 0000442 153.5823 230.6057 12.62263514188474","2011-080F","38045","7791.752","114.080","1413.962","1413.273"
"GENERATED VIA SPACETRACK.ORG API","JSPOC","40722","FLOCK 1E 2","PAYLOAD","U","98067GE","2016-01-10 04:28:07","115808","15.76929271","0.0002543","51.6351","119.157","314.4882","117.1042","0","999","2821","0.00085358","0.0014294","0","1978369","0 FLOCK 1E 2","1 40722U 98067GE  16010.18619347  .00142940  00000-0  85358-3 0  9994","2 40722  51.6351 119.1570 0002543 314.4882 117.1042 15.76929271 28214","1998-067GE","40722","6717.283","91.316","340.857","337.440"
"GENERATED VIA SPACETRACK.ORG API","JSPOC","38833","NAVSTAR 67 (USA 239)","PAYLOAD","U","12053A","2016-01-10 04:28:27","341184","2.00567377","0.0040082","54.4918","300.1472","15.8849","344.2699","0","999","2391","0","-3.1e-07","0","1978614","0 NAVSTAR 67 (USA 239)","1 38833U 12053A   16010.18642756 -.00000031  00000-0  00000+0 0  9997","2 38833  54.4918 300.1472 0040082  15.8849 344.2699  2.00567377 23913","2012-053A","38833","26560.014","717.963","20288.337","20075.421"
"GENERATED VIA SPACETRACK.ORG API","JSPOC","32794","AMOS 3","PAYLOAD","U","08022A","2016-01-10 04:28:42","533760","1.0027109","0.0001248","0.0488","252.3256","49.8035","230.1733","0","999","2823","0","-3.1e-07","0","1978404","0 AMOS 3","1 32794U 08022A   16010.18660340 -.00000031  00000-0  00000+0 0  9997","2 32794   0.0488 252.3256 0001248  49.8035 230.1733  1.00271090 28230","2008-022A","32794","42164.926","1436.106","35792.053","35781.529"
"GENERATED VIA SPACETRACK.ORG API","JSPOC","28132","AMOS 2","PAYLOAD","U","03059A","2016-01-10 04:28:42","533760","1.00272491","0.0003617","0.0224","73.7782","233.0484","225.4649","0","999","4417","0","-3e-07","0","1978428","0 AMOS 2","1 28132U 03059A   16010.18660340 -.00000030  00000-0  00000+0 0  9992","2 28132   0.0224  73.7782 0003617 233.0484 225.4649  1.00272491 44175","2003-059A","28132","42164.534","1436.086","35801.649","35771.148"
"GENERATED VIA SPACETRACK.ORG API","JSPOC","15484","GORIZONT 11","PAYLOAD","U","85007A","2016-01-10 04:28:42","533760","1.00257026","0.0002876","14.5152","350.3112","202.695","337.7826","0","999","11441","0","-6.7e-07","0","1979034","0 GORIZONT 11","1 15484U 85007A   16010.18660340 -.00000067 +00000-0 +00000-0 0  9992","2 15484 014.5152 350.3112 0002876 202.6950 337.7826 01.00257026114414","1985-007A","15484","42168.869","1436.308","35802.862","35778.607"
"GENERATED VIA SPACETRACK.ORG API","JSPOC","29273","SYRACUSE 3B","PAYLOAD","U","06033B","2016-01-10 04:28:42","533760","1.00271217","0.0005581","0.0141","41.0399","245.947","244.1298","0","999","3450","0","-4e-07","0","1979034","0 SYRACUSE 3B","1 29273U 06033B   16010.18660340 -.00000040 +00000-0 +00000-0 0  9996","2 29273 000.0141 041.0399 0005581 245.9470 244.1298 01.00271217034500","2006-033B","29273","42164.891","1436.105","35810.288","35763.223"
